NORAD_CAT_ID,OBJECT_NAME,OBJECT_TYPE,EPOCH,MEAN_MOTION,ECCENTRICITY,INCLINATION,RA_OF_ASC_NODE,ARG_OF_PERICENTER,MEAN_ANOMALY,BSTAR,MEAN_MOTION_DOT,MEAN_MOTION_DDOT,TLE_LINE0,TLE_LINE1,TLE_LINE2,SEMIMAJOR_AXIS,PERIOD,APOGEE,PERIGEE,DECAYED
53282.0,STARLINK-4164,PAYLOAD,2023-06-15 07:27:29,15.08802812,0.0001165,53.2171,346.0161,111.5565,248.5551,0.00054432,8.377e-05,0.0,0 STARLINK-4164,1 53282U 22086AS  23166.31075971  .00008377  00000-0  54432-3 0  9995,2 53282  53.2171 346.0161 0001165 111.5565 248.5551 15.08802812 50302,6917.994,95.44,540.665,539.053,0.0
53282.0,STARLINK-4164,PAYLOAD,2023-06-15 18:35:10,15.08844191,9.23e-05,53.2177,343.9355,87.0293,273.0805,3.9296e-05,3.38e-06,0.0,0 STARLINK-4164,1 53282U 22086AS  23166.77442450  .00000338  00000-0  39296-4 0  9996,2 53282  53.2177 343.9355 0000923  87.0293 273.0805 15.08844191 50373,6917.868,95.437,540.371,539.094,0.0
53282.0,STARLINK-4164,PAYLOAD,2023-06-16 12:04:24,15.08842443,9.99e-05,53.2175,340.6637,102.2798,257.8306,0.00013301,1.83e-05,0.0,0 STARLINK-4164,1 53282U 22086AS  23167.50306212  .00001830  00000-0  13301-3 0  9999,2 53282  53.2175 340.6637 0000999 102.2798 257.8306 15.08842443 50656,6917.873,95.437,540.429,539.047,0.0
53282.0,STARLINK-4164,PAYLOAD,2023-06-16 18:25:56,15.08852605,9.15e-05,53.2177,339.4757,82.1711,277.9385,0.00021702,3.169e-05,0.0,0 STARLINK-4164,1 53282U 22086AS  23167.76801392  .00003169  00000-0  21702-3 0  9997,2 53282  53.2177 339.4757 0000915  82.1711 277.9385 15.08852605 50691,6917.842,95.437,540.34,539.074,0.0
53282.0,STARLINK-4164,PAYLOAD,2023-06-17 03:58:16,15.08835822,9.99e-05,53.2176,337.6912,79.6765,280.4339,5.3103e-05,5.57e-06,0.0,0 STARLINK-4164,1 53282U 22086AS  23168.16546893  .00000557  00000-0  53103-4 0  9993,2 53282  53.2176 337.6912 0000999  79.6765 280.4339 15.08835822 50583,6917.893,95.438,540.449,539.067,0.0
53282.0,STARLINK-4164,PAYLOAD,2023-06-17 11:55:13,15.0882542,0.0001266,53.2177,336.2046,87.6665,272.4472,-5.1278e-05,-1.103e-05,0.0,0 STARLINK-4164,1 53282U 22086AS  23168.49668099 -.00001103  00000-0 -51278-4 0  9993,2 53282  53.2177 336.2046 0001266  87.6665 272.4472 15.08825420 50800,6917.925,95.438,540.666,538.914,0.0
53282.0,STARLINK-4164,PAYLOAD,2023-06-17 18:16:45,15.08825181,8.86e-05,53.2176,335.016,96.8279,263.2814,-5.4958e-05,-1.162e-05,0.0,0 STARLINK-4164,1 53282U 22086AS  23168.76164245 -.00001162  00000-0 -54958-4 0  9990,2 53282  53.2176 335.0160 0000886  96.8279 263.2814 15.08825181 50670,6917.926,95.438,540.404,539.178,0.0
53282.0,STARLINK-4164,PAYLOAD,2023-06-18 03:49:04,15.08833725,9.04e-05,53.2176,333.2317,99.7451,260.3643,-1.2354e-05,-4.84e-06,0.0,0 STARLINK-4164,1 53282U 22086AS  23169.15907832 -.00000484  00000-0 -12354-4 0  9991,2 53282  53.2176 333.2317 0000904  99.7451 260.3643 15.08833725 50737,6917.9,95.438,540.39,539.139,0.0
53282.0,STARLINK-4164,PAYLOAD,2023-06-18 10:10:36,15.08837197,8.3e-05,53.2179,332.0416,95.8309,264.2778,8.9775e-05,1.141e-05,0.0,0 STARLINK-4164,1 53282U 22086AS  23169.42403539  .00001141  00000-0  89775-4 0  9996,2 53282  53.2179 332.0416 0000830  95.8309 264.2778 15.08837197 50946,6917.889,95.438,540.328,539.18,0.0
53282.0,STARLINK-4164,PAYLOAD,2023-06-18 19:42:54,15.08847181,8.54e-05,53.2169,330.2578,101.944,258.1648,0.00015671,2.208e-05,0.0,0 STARLINK-4164,1 53282U 22086AS  23169.82146841  .00002208  00000-0  15671-3 0  9998,2 53282  53.2169 330.2578 0000854 101.9440 258.1648 15.08847181 51005,6917.858,95.437,540.314,539.133,0.0
53282.0,STARLINK-4164,PAYLOAD,2023-06-19 03:39:50,15.08847905,8.41e-05,53.2173,328.7705,88.302,271.8069,0.00013163,1.808e-05,0.0,0 STARLINK-4164,1 53282U 22086AS  23170.15266866  .00001808  00000-0  13163-3 0  9995,2 53282  53.2173 328.7705 0000841  88.3020 271.8069 15.08847905 51050,6917.856,95.437,540.303,539.139,0.0
53282.0,STARLINK-4164,PAYLOAD,2023-06-19 13:12:10,15.08839138,8.25e-05,53.2169,326.9862,88.9879,271.1208,0.00025254,3.734e-05,0.0,0 STARLINK-4164,1 53282U 22086AS  23170.55011576  .00003734  00000-0  25254-3 0  9999,2 53282  53.2169 326.9862 0000825  88.9879 271.1208 15.08839138 50943,6917.883,95.438,540.319,539.177,0.0
53282.0,STARLINK-4164,PAYLOAD,2023-06-20 09:52:10,15.08839754,7.7e-05,53.2165,323.1212,97.8905,262.2174,-1.8658e-05,-5.85e-06,0.0,0 STARLINK-4164,1 53282U 22086AS  23171.41123313 -.00000585  00000-0 -18658-4 0  9992,2 53282  53.2165 323.1212 0000770  97.8905 262.2174 15.08839754 51246,6917.881,95.438,540.279,539.213,0.0
53282.0,STARLINK-4164,PAYLOAD,2023-06-20 17:49:06,15.0884479,7.07e-05,53.2166,321.6345,89.4204,270.6869,5.8629e-05,6.46e-06,0.0,0 STARLINK-4164,1 53282U 22086AS  23171.74243170  .00000646  00000-0  58629-4 0  9990,2 53282  53.2166 321.6345 0000707  89.4204 270.6869 15.08844790 51123,6917.866,95.437,540.22,539.242,0.0
53282.0,STARLINK-4164,PAYLOAD,2023-06-21 03:21:25,15.08842678,7.88e-05,53.2168,319.8497,91.2993,268.8089,2.6215e-05,1.3e-06,0.0,0 STARLINK-4164,1 53282U 22086AS  23172.13987271  .00000130  00000-0  26215-4 0  9995,2 53282  53.2168 319.8497 0000788  91.2993 268.8089 15.08842678 51358,6917.872,95.437,540.282,539.192,0.0
53282.0,STARLINK-4164,PAYLOAD,2023-06-21 16:04:30,15.08839829,6.83e-05,53.2168,317.4715,90.131,269.976,7.5826e-05,9.19e-06,0.0,0 STARLINK-4164,1 53282U 22086AS  23172.66979470  .00000919  00000-0  75826-4 0  9992,2 53282  53.2168 317.4715 0000683  90.1310 269.9760 15.08839829 51262,6917.881,95.438,540.218,539.273,0.0
53282.0,STARLINK-4164,PAYLOAD,2023-06-22 19:06:03,15.08846182,6.08e-05,53.2185,312.4157,90.0413,270.0649,6.2961e-05,7.15e-06,0.0,0 STARLINK-4164,1 53282U 22086AS  23173.79587218  .00000715  00000-0  62961-4 0  9992,2 53282  53.2185 312.4157 0000608  90.0413 270.0649 15.08846182 51434,6917.861,95.437,540.147,539.306,0.0
53282.0,STARLINK-4164,PAYLOAD,2023-06-23 09:24:31,15.08840729,7.48e-05,53.2188,309.7384,87.0765,273.0312,0.00011501,1.543e-05,0.0,0 STARLINK-4164,1 53282U 22086AS  23174.39203543  .00001543  00000-0  11501-3 0  9998,2 53282  53.2188 309.7384 0000748  87.0765 273.0312 15.08840729 51520,6917.878,95.438,540.261,539.226,0.0
53282.0,STARLINK-4164,PAYLOAD,2023-06-23 15:46:04,15.08849893,7.58e-05,53.2172,308.5487,84.6211,275.4867,0.000265,3.933e-05,0.0,0 STARLINK-4164,1 53282U 22086AS  23174.65699400  .00003933  00000-0  26500-3 0  9998,2 53282  53.2172 308.5487 0000758  84.6211 275.4867 15.08849893 51560,6917.85,95.437,540.24,539.191,0.0
53282.0,STARLINK-4164,PAYLOAD,2023-06-24 15:36:51,15.08842213,9.55e-05,53.2174,304.0888,67.1618,292.9475,0.00014068,1.952e-05,0.0,0 STARLINK-4164,1 53282U 22086AS  23175.65059781  .00001952  00000-0  14068-3 0  9996,2 53282  53.2174 304.0888 0000955  67.1618 292.9475 15.08842213 51719,6917.874,95.437,540.399,539.078,0.0
53282.0,STARLINK-4164,PAYLOAD,2023-06-26 00:59:57,15.08842339,6.96e-05,53.2155,297.8475,93.3572,266.75,0.00012148,1.646e-05,0.0,0 STARLINK-4164,1 53282U 22086AS  23177.04163625  .00001646  00000-0  12148-3 0  9991,2 53282  53.2155 297.8475 0000696  93.3572 266.7500 15.08842339 51921,6917.873,95.437,540.22,539.257,0.0
53282.0,STARLINK-4164,PAYLOAD,2023-06-26 15:18:26,15.08830934,0.0001131,53.2161,295.1697,92.0914,268.0207,-3.7376e-05,-8.82e-06,0.0,0 STARLINK-4164,1 53282U 22086AS  23177.63780569 -.00000882  00000-0 -37376-4 0  9992,2 53282  53.2161 295.1697 0001131  92.0914 268.0207 15.08830934 52014,6917.908,95.438,540.556,538.991,0.0
53282.0,STARLINK-4164,PAYLOAD,2023-06-27 10:23:03,15.0884158,9.03e-05,53.2159,291.6015,94.694,265.4155,0.00018189,2.608e-05,0.0,0 STARLINK-4164,1 53282U 22086AS  23178.43268244  .00002608  00000-0  18189-3 0  9998,2 53282  53.2159 291.6015 0000903  94.6940 265.4155 15.08841580 52134,6917.876,95.437,540.365,539.116,0.0
53282.0,STARLINK-4164,PAYLOAD,2023-06-28 07:03:04,15.08838415,8.34e-05,53.2156,287.7361,81.3577,278.7509,0.00016099,2.275e-05,0.0,0 STARLINK-4164,1 53282U 22086AS  23179.29380530  .00002275  00000-0  16099-3 0  9994,2 53282  53.2156 287.7361 0000834  81.3577 278.7509 15.08838415 52260,6917.885,95.438,540.327,539.173,0.0
53282.0,STARLINK-4164,PAYLOAD,2023-06-29 08:29:14,15.08841156,9.39e-05,53.2162,282.9777,78.0514,282.0583,7.615e-05,9.24e-06,0.0,0 STARLINK-4164,1 53282U 22086AS  23180.35364520  .00000924  00000-0  76150-4 0  9998,2 53282  53.2162 282.9777 0000939  78.0514 282.0583 15.08841156 52429,6917.877,95.437,540.391,539.092,0.0
53282.0,STARLINK-4164,PAYLOAD,2023-06-29 16:26:09,15.08855539,7.69e-05,53.2182,281.4921,75.3788,284.7289,0.00014001,1.942e-05,0.0,0 STARLINK-4164,1 53282U 22086AS  23180.68483322  .00001942  00000-0  14001-3 0  9993,2 53282  53.2182 281.4921 0000769  75.3788 284.7289 15.08855539 52477,6917.833,95.437,540.23,539.166,0.0
53282.0,STARLINK-4164,PAYLOAD,2023-07-01 09:46:12,15.08836137,6.15e-05,53.2178,273.7598,89.0382,271.0681,2.0337e-05,3.6e-07,0.0,0 STARLINK-4164,1 53282U 22086AS  23182.40708720  .00000036  00000-0  20337-4 0  9990,2 53282  53.2178 273.7598 0000615  89.0382 271.0681 15.08836137 52735,6917.892,95.438,540.183,539.332,0.0
53282.0,STARLINK-4164,PAYLOAD,2023-07-02 11:12:22,15.08836371,8.61e-05,53.2168,269.002,83.4768,276.6322,8.4515e-05,1.057e-05,0.0,0 STARLINK-4164,1 53282U 22086AS  23183.46692823  .00001057  00000-0  84515-4 0  9995,2 53282  53.2168 269.0020 0000861  83.4768 276.6322 15.08836371 52891,6917.891,95.438,540.352,539.161,0.0
53282.0,STARLINK-4164,PAYLOAD,2023-07-03 12:38:32,15.08840111,8.32e-05,53.2168,264.2445,87.5947,272.514,0.00014466,2.015e-05,0.0,0 STARLINK-4164,1 53282U 22086AS  23184.52676705  .00002015  00000-0  14466-3 0  9996,2 53282  53.2168 264.2445 0000832  87.5947 272.5140 15.08840111 53050,6917.88,95.438,540.321,539.169,0.0
53282.0,STARLINK-4164,PAYLOAD,2023-07-04 14:04:42,15.08842848,8.38e-05,53.217,259.4867,92.6485,267.4603,8.9497e-05,1.137e-05,0.0,0 STARLINK-4164,1 53282U 22086AS  23185.58660775  .00001137  00000-0  89497-4 0  9994,2 53282  53.2170 259.4867 0000838  92.6485 267.4603 15.08842848 53211,6917.872,95.437,540.316,539.157,0.0
